[{"OBJECT_NAME":"ISS (ZARYA)","OBJECT_ID":"1998-067A","EPOCH":"2026-04-25T04:01:30.445536","MEAN_MOTION":15.48944607,"ECCENTRICITY":0.00069208,"INCLINATION":51.632,"RA_OF_ASC_NODE":202.5215,"ARG_OF_PERICENTER":348.0684,"MEAN_ANOMALY":12.0139,"EPHEMERIS_TYPE":0,"CLASSIFICATION_TYPE":"U","NORAD_CAT_ID":25544,"ELEMENT_SET_NO":999,"REV_AT_EPOCH":56353,"BSTAR":0.00020209254,"MEAN_MOTION_DOT":0.00010683,"MEAN_MOTION_DDOT":0},{"OBJECT_NAME":"POISK","OBJECT_ID":"2009-060A","EPOCH":"2026-04-25T04:01:30.445536","MEAN_MOTION":15.48944607,"ECCENTRICITY":0.00069208,"INCLINATION":51.632,"RA_OF_ASC_NODE":202.5215,"ARG_OF_PERICENTER":348.0684,"MEAN_ANOMALY":12.0139,"EPHEMERIS_TYPE":0,"CLASSIFICATION_TYPE":"U","NORAD_CAT_ID":36086,"ELEMENT_SET_NO":999,"REV_AT_EPOCH":56352,"BSTAR":0.00020209254,"MEAN_MOTION_DOT":0.00010683,"MEAN_MOTION_DDOT":0},{"OBJECT_NAME":"CSS (TIANHE)","OBJECT_ID":"2021-035A","EPOCH":"2026-04-24T22:45:00.517824","MEAN_MOTION":15.62906639,"ECCENTRICITY":0.00068165,"INCLINATION":41.467,"RA_OF_ASC_NODE":286.2208,"ARG_OF_PERICENTER":268.4201,"MEAN_ANOMALY":91.5858,"EPHEMERIS_TYPE":0,"CLASSIFICATION_TYPE":"U","NORAD_CAT_ID":48274,"ELEMENT_SET_NO":999,"REV_AT_EPOCH":28484,"BSTAR":0.00028753318,"MEAN_MOTION_DOT":0.00026533,"MEAN_MOTION_DDOT":0},{"OBJECT_NAME":"ISS (NAUKA)","OBJECT_ID":"2021-066A","EPOCH":"2026-04-25T04:01:30.445536","MEAN_MOTION":15.48944607,"ECCENTRICITY":0.00069208,"INCLINATION":51.632,"RA_OF_ASC_NODE":202.5215,"ARG_OF_PERICENTER":348.0684,"MEAN_ANOMALY":12.0139,"EPHEMERIS_TYPE":0,"CLASSIFICATION_TYPE":"U","NORAD_CAT_ID":49044,"ELEMENT_SET_NO":999,"REV_AT_EPOCH":56356,"BSTAR":0.00020209254,"MEAN_MOTION_DOT":0.00010683,"MEAN_MOTION_DDOT":0},{"OBJECT_NAME":"FREGAT DEB","OBJECT_ID":"2011-037PF","EPOCH":"2026-04-24T10:30:23.059296","MEAN_MOTION":12.41042082,"ECCENTRICITY":0.09412363,"INCLINATION":51.6464,"RA_OF_ASC_NODE":163.3683,"ARG_OF_PERICENTER":164.2676,"MEAN_ANOMALY":198.9679,"EPHEMERIS_TYPE":0,"CLASSIFICATION_TYPE":"U","NORAD_CAT_ID":49271,"ELEMENT_SET_NO":999,"REV_AT_EPOCH":21837,"BSTAR":0.0064263745,"MEAN_MOTION_DOT":4.161e-5,"MEAN_MOTION_DDOT":0},{"OBJECT_NAME":"CSS (WENTIAN)","OBJECT_ID":"2022-085A","EPOCH":"2026-04-24T22:45:00.517824","MEAN_MOTION":15.62906639,"ECCENTRICITY":0.00068165,"INCLINATION":41.467,"RA_OF_ASC_NODE":286.2208,"ARG_OF_PERICENTER":268.4201,"MEAN_ANOMALY":91.5858,"EPHEMERIS_TYPE":0,"CLASSIFICATION_TYPE":"U","NORAD_CAT_ID":53239,"ELEMENT_SET_NO":999,"REV_AT_EPOCH":28313,"BSTAR":0.00028753318,"MEAN_MOTION_DOT":0.00026533,"MEAN_MOTION_DDOT":0},{"OBJECT_NAME":"CSS (MENGTIAN)","OBJECT_ID":"2022-143A","EPOCH":"2026-04-24T22:45:00.517824","MEAN_MOTION":15.62906639,"ECCENTRICITY":0.00068165,"INCLINATION":41.467,"RA_OF_ASC_NODE":286.2208,"ARG_OF_PERICENTER":268.4201,"MEAN_ANOMALY":91.5858,"EPHEMERIS_TYPE":0,"CLASSIFICATION_TYPE":"U","NORAD_CAT_ID":54216,"ELEMENT_SET_NO":999,"REV_AT_EPOCH":28484,"BSTAR":0.00028753318,"MEAN_MOTION_DOT":0.00026533,"MEAN_MOTION_DDOT":0},{"OBJECT_NAME":"TIANZHOU-9","OBJECT_ID":"2025-149A","EPOCH":"2026-04-24T22:45:00.517824","MEAN_MOTION":15.62906639,"ECCENTRICITY":0.00068165,"INCLINATION":41.467,"RA_OF_ASC_NODE":286.2208,"ARG_OF_PERICENTER":268.4201,"MEAN_ANOMALY":91.5858,"EPHEMERIS_TYPE":0,"CLASSIFICATION_TYPE":"U","NORAD_CAT_ID":64786,"ELEMENT_SET_NO":999,"REV_AT_EPOCH":28485,"BSTAR":0.00028753318,"MEAN_MOTION_DOT":0.00026533,"MEAN_MOTION_DDOT":0},{"OBJECT_NAME":"HRC MONOBLOCK CAMERA","OBJECT_ID":"1998-067XR","EPOCH":"2026-04-24T11:48:02.776320","MEAN_MOTION":15.67197846,"ECCENTRICITY":0.00047146,"INCLINATION":51.6263,"RA_OF_ASC_NODE":193.4917,"ARG_OF_PERICENTER":328.8772,"MEAN_ANOMALY":31.1944,"EPHEMERIS_TYPE":0,"CLASSIFICATION_TYPE":"U","NORAD_CAT_ID":66052,"ELEMENT_SET_NO":999,"REV_AT_EPOCH":2956,"BSTAR":0.0004557811,"MEAN_MOTION_DOT":0.00049639,"MEAN_MOTION_DDOT":0},{"OBJECT_NAME":"HTV-X1","OBJECT_ID":"2025-241A","EPOCH":"2026-04-22T23:48:46.558656","MEAN_MOTION":15.32728944,"ECCENTRICITY":0.00078219,"INCLINATION":51.6353,"RA_OF_ASC_NODE":219.4042,"ARG_OF_PERICENTER":344.1053,"MEAN_ANOMALY":15.9682,"EPHEMERIS_TYPE":0,"CLASSIFICATION_TYPE":"U","NORAD_CAT_ID":66174,"ELEMENT_SET_NO":999,"REV_AT_EPOCH":2773,"BSTAR":0.00014900059,"MEAN_MOTION_DOT":4.413e-5,"MEAN_MOTION_DDOT":0},{"OBJECT_NAME":"SZ-21 MODULE","OBJECT_ID":"2025-246C","EPOCH":"2026-04-24T17:37:21.379008","MEAN_MOTION":15.7208763,"ECCENTRICITY":0.0004099,"INCLINATION":41.473,"RA_OF_ASC_NODE":279.1403,"ARG_OF_PERICENTER":320.8652,"MEAN_ANOMALY":39.1894,"EPHEMERIS_TYPE":0,"CLASSIFICATION_TYPE":"U","NORAD_CAT_ID":66515,"ELEMENT_SET_NO":999,"REV_AT_EPOCH":2531,"BSTAR":0.00025921604,"MEAN_MOTION_DOT":0.00034872,"MEAN_MOTION_DDOT":0},{"OBJECT_NAME":"SHENZHOU-22","OBJECT_ID":"2025-272A","EPOCH":"2026-04-24T22:45:00.517824","MEAN_MOTION":15.62906639,"ECCENTRICITY":0.00068165,"INCLINATION":41.467,"RA_OF_ASC_NODE":286.2208,"ARG_OF_PERICENTER":268.4201,"MEAN_ANOMALY":91.5858,"EPHEMERIS_TYPE":0,"CLASSIFICATION_TYPE":"U","NORAD_CAT_ID":66645,"ELEMENT_SET_NO":999,"REV_AT_EPOCH":28486,"BSTAR":0.00028753318,"MEAN_MOTION_DOT":0.00026533,"MEAN_MOTION_DDOT":0},{"OBJECT_NAME":"SOYUZ-MS 28","OBJECT_ID":"2025-275A","EPOCH":"2026-04-25T04:01:30.445536","MEAN_MOTION":15.48944607,"ECCENTRICITY":0.00069208,"INCLINATION":51.632,"RA_OF_ASC_NODE":202.5215,"ARG_OF_PERICENTER":348.0684,"MEAN_ANOMALY":12.0139,"EPHEMERIS_TYPE":0,"CLASSIFICATION_TYPE":"U","NORAD_CAT_ID":66664,"ELEMENT_SET_NO":999,"REV_AT_EPOCH":56380,"BSTAR":0.00020209254,"MEAN_MOTION_DOT":0.00010683,"MEAN_MOTION_DDOT":0},{"OBJECT_NAME":"DUPLEX","OBJECT_ID":"1998-067XS","EPOCH":"2026-04-25T05:24:33.670080","MEAN_MOTION":15.59111013,"ECCENTRICITY":0.00046838,"INCLINATION":51.6277,"RA_OF_ASC_NODE":196.1551,"ARG_OF_PERICENTER":340.4291,"MEAN_ANOMALY":19.6521,"EPHEMERIS_TYPE":0,"CLASSIFICATION_TYPE":"U","NORAD_CAT_ID":66906,"ELEMENT_SET_NO":999,"REV_AT_EPOCH":2238,"BSTAR":0.00042206797,"MEAN_MOTION_DOT":0.00033272,"MEAN_MOTION_DDOT":0},{"OBJECT_NAME":"ISS OBJECT XT","OBJECT_ID":"1998-067XT","EPOCH":"2026-04-24T14:00:44.410176","MEAN_MOTION":15.93083615,"ECCENTRICITY":0.00123662,"INCLINATION":51.6177,"RA_OF_ASC_NODE":188.0043,"ARG_OF_PERICENTER":354.5534,"MEAN_ANOMALY":5.5337,"EPHEMERIS_TYPE":0,"CLASSIFICATION_TYPE":"U","NORAD_CAT_ID":66907,"ELEMENT_SET_NO":999,"REV_AT_EPOCH":2243,"BSTAR":0.001222378,"MEAN_MOTION_DOT":0.00440305,"MEAN_MOTION_DDOT":8.6756078e-5},{"OBJECT_NAME":"ISS OBJECT XU","OBJECT_ID":"1998-067XU","EPOCH":"2026-04-24T13:44:42.718560","MEAN_MOTION":15.9375995,"ECCENTRICITY":0.00121561,"INCLINATION":51.6199,"RA_OF_ASC_NODE":187.9251,"ARG_OF_PERICENTER":352.7751,"MEAN_ANOMALY":7.3079,"EPHEMERIS_TYPE":0,"CLASSIFICATION_TYPE":"U","NORAD_CAT_ID":66908,"ELEMENT_SET_NO":999,"REV_AT_EPOCH":2243,"BSTAR":0.0012667612,"MEAN_MOTION_DOT":0.00473009,"MEAN_MOTION_DDOT":9.9699684e-5}]
