ISS (ZARYA)             
1 25544U 98067A   26115.16771349  .00010683  00000+0  20209-3 0  9996
2 25544  51.6320 202.5215 0006920 348.0684  12.0139 15.48944607563532
CSS (TIANHE)            
1 48274U 21035A   26114.94792266  .00026533  00000+0  28753-3 0  9991
2 48274  41.4670 286.2208 0006816 268.4201  91.5858 15.62906639284840
HTV-X1                  
1 66174U 25241A   26112.99220554  .00004413  00000+0  14900-3 0  9994
2 66174  51.6353 219.4042 0007821 344.1053  15.9682 15.32728944 27734
SZ-21 MODULE            
1 66515U 25246C   26114.73427522  .00034872  00000+0  25922-3 0  9994
2 66515  41.4730 279.1403 0004099 320.8652  39.1894 15.72087630 25312
POISK                   
1 36086U 09060A   26115.16771349  .00010683  00000+0  20209-3 0  9994
2 36086  51.6320 202.5215 0006920 348.0684  12.0139 15.48944607563524
ISS (NAUKA)             
1 49044U 21066A   26115.16771349  .00010683  00000+0  20209-3 0  9992
2 49044  51.6320 202.5215 0006920 348.0684  12.0139 15.48944607563566
FREGAT DEB              
1 49271U 11037PF  26114.43776689  .00004161  00000+0  64264-2 0  9994
2 49271  51.6464 163.3683 0941236 164.2676 198.9679 12.41042082218372
CSS (WENTIAN)           
1 53239U 22085A   26114.94792266  .00026533  00000+0  28753-3 0  9994
2 53239  41.4670 286.2208 0006816 268.4201  91.5858 15.62906639283138
CSS (MENGTIAN)          
1 54216U 22143A   26114.94792266  .00026533  00000+0  28753-3 0  9995
2 54216  41.4670 286.2208 0006816 268.4201  91.5858 15.62906639284843
TIANZHOU-9              
1 64786U 25149A   26114.94792266  .00026533  00000+0  28753-3 0  9997
2 64786  41.4670 286.2208 0006816 268.4201  91.5858 15.62906639284857
HRC MONOBLOCK CAMERA    
1 66052U 98067XR  26114.49169880  .00049639  00000+0  45578-3 0  9990
2 66052  51.6263 193.4917 0004714 328.8772  31.1944 15.67197846 29569
SHENZHOU-22             
1 66645U 25272A   26114.94792266  .00026533  00000+0  28753-3 0  9990
2 66645  41.4670 286.2208 0006816 268.4201  91.5858 15.62906639284864
SOYUZ-MS 28             
1 66664U 25275A   26115.16771349  .00010683  00000+0  20209-3 0  9995
2 66664  51.6320 202.5215 0006920 348.0684  12.0139 15.48944607563800
DUPLEX                  
1 66906U 98067XS  26115.22538970  .00033272  00000+0  42207-3 0  9992
2 66906  51.6277 196.1551 0004683 340.4291  19.6521 15.59111013 22385
ISS OBJECT XT           
1 66907U 98067XT  26114.58384734  .00440305  86756-4  12224-2 0  9999
2 66907  51.6177 188.0043 0012366 354.5534   5.5337 15.93083615 22433
ISS OBJECT XU           
1 66908U 98067XU  26114.57271665  .00473009  99700-4  12668-2 0  9999
2 66908  51.6199 187.9251 0012156 352.7751   7.3079 15.93759950 22430
